[
    {
        "CCSDS_OMM_VERS": "3.0",
        "COMMENT": "GENERATED VIA SPACE-TRACK.ORG API",
        "CREATION_DATE": "2025-03-02T09:28:08",
        "ORIGINATOR": "18 SPCS",
        "OBJECT_NAME": "BEIDOU 3M13",
        "OBJECT_ID": "2018-072A",
        "CENTER_NAME": "EARTH",
        "REF_FRAME": "TEME",
        "TIME_SYSTEM": "UTC",
        "MEAN_ELEMENT_THEORY": "SGP4",
        "EPOCH": "2025-03-01T11:29:36.286944",
        "MEAN_MOTION": "1.86231057",
        "ECCENTRICITY": "0.00088180",
        "INCLINATION": "56.2084",
        "RA_OF_ASC_NODE": "78.3088",
        "ARG_OF_PERICENTER": "300.3268",
        "MEAN_ANOMALY": "59.6417",
        "EPHEMERIS_TYPE": "0",
        "CLASSIFICATION_TYPE": "U",
        "NORAD_CAT_ID": "43622",
        "ELEMENT_SET_NO": "999",
        "REV_AT_EPOCH": "4385",
        "BSTAR": "0.00000000000000",
        "MEAN_MOTION_DOT": "0.00000018",
        "MEAN_MOTION_DDOT": "0.0000000000000",
        "SEMIMAJOR_AXIS": "27906.183",
        "PERIOD": "773.233",
        "APOAPSIS": "21552.656",
        "PERIAPSIS": "21503.440",
        "OBJECT_TYPE": "PAYLOAD",
        "RCS_SIZE": "LARGE",
        "COUNTRY_CODE": "PRC",
        "LAUNCH_DATE": "2018-09-19",
        "SITE": "XSC",
        "DECAY_DATE": null,
        "FILE": "4656805",
        "GP_ID": "282049105",
        "TLE_LINE0": "0 BEIDOU 3M13",
        "TLE_LINE1": "1 43622U 18072A   25060.47889221  .00000018  00000-0  00000-0 0  9998",
        "TLE_LINE2": "2 43622  56.2084  78.3088 0008818 300.3268  59.6417  1.86231057 43850"
    }
]